{"type": "FeatureCollection", "features": [ {"type": "Feature", "properties": {"norad_id": 34327, "name": "COSMOS 2251 DEB", "group": "cosmos-2251-debris", "lat": -4.471452106759357, "lon": 167.74516889656294, "alt_km": 581.0444099922424, "timestamp": "2025-12-14T03:55:53.181979+00:00", "meta": {"OBJECT_NAME": "COSMOS 2251 DEB", "OBJECT_ID": "1993-036NZ", "EPOCH": "2025-12-12T23:30:12.435840", "MEAN_MOTION": 14.89191333, "ECCENTRICITY": 0.00328335, "INCLINATION": 73.994, "RA_OF_ASC_NODE": 171.4036, "ARG_OF_PERICENTER": 347.7124, "MEAN_ANOMALY": 140.0703, "EPHEMERIS_TYPE": 0, "CLASSIFICATION_TYPE": "U", "NORAD_CAT_ID": 34327, "ELEMENT_SET_NO": 999, "REV_AT_EPOCH": 89511, "BSTAR": 0.001696839, "MEAN_MOTION_DOT": 0.00016204, "MEAN_MOTION_DDOT": 0}, "tle": {"line1": "1 34327U 93036NZ  25346.97931060  .00016204  00000+0  16968-2 0  9999", "line2": "2 34327  73.9940 171.4036 0032833 347.7124 140.0703 14.89191333895113"}}, "geometry": {"type": "Point", "coordinates": [167.74516889656294, -4.471452106759357]}}, {"type": "Feature", "properties": {"norad_id": 34340, "name": "COSMOS 2251 DEB", "group": "cosmos-2251-debris", "lat": -51.468833664939105, "lon": -75.39441141895146, "alt_km": 1028.7357659695344, "timestamp": "2025-12-14T03:55:53.181989+00:00", "meta": {"OBJECT_NAME": "COSMOS 2251 DEB", "OBJECT_ID": "1993-036PN", "EPOCH": "2025-12-13T07:51:10.056672", "MEAN_MOTION": 13.79574855, "ECCENTRICITY": 0.02826689, "INCLINATION": 74.0793, "RA_OF_ASC_NODE": 307.0059, "ARG_OF_PERICENTER": 54.6482, "MEAN_ANOMALY": 60.6759, "EPHEMERIS_TYPE": 0, "CLASSIFICATION_TYPE": "U", "NORAD_CAT_ID": 34340, "ELEMENT_SET_NO": 999, "REV_AT_EPOCH": 84276, "BSTAR": 0.0021835544, "MEAN_MOTION_DOT": 3.018e-05, "MEAN_MOTION_DDOT": 0}, "tle": {"line1": "1 34340U 93036PN  25347.32719973  .00003018  00000+0  21836-2 0  9990", "line2": "2 34340  74.0793 307.0059 0282668  54.6482  60.6759 13.79574855842765"}}, "geometry": {"type": "Point", "coordinates": [-75.39441141895146, -51.468833664939105]}}, {"type": "Feature", "properties": {"norad_id": 34343, "name": "COSMOS 2251 DEB", "group": "cosmos-2251-debris", "lat": 54.17972773602609, "lon": -116.59979010858608, "alt_km": 665.7834837738001, "timestamp": "2025-12-14T03:55:53.182000+00:00", "meta": {"OBJECT_NAME": "COSMOS 2251 DEB", "OBJECT_ID": "1993-036PR", "EPOCH": "2025-12-13T08:01:18.475104", "MEAN_MOTION": 14.69463807, "ECCENTRICITY": 0.00234843, "INCLINATION": 74.0197, "RA_OF_ASC_NODE": 88.4011, "ARG_OF_PERICENTER": 2.997, "MEAN_ANOMALY": 52.5099, "EPHEMERIS_TYPE": 0, "CLASSIFICATION_TYPE": "U", "NORAD_CAT_ID": 34343, "ELEMENT_SET_NO": 999, "REV_AT_EPOCH": 88739, "BSTAR": 0.0025618441, "MEAN_MOTION_DOT": 0.00015245, "MEAN_MOTION_DDOT": 0}, "tle": {"line1": "1 34343U 93036PR  25347.33424161  .00015245  00000+0  25618-2 0  9993", "line2": "2 34343  74.0197  88.4011 0023484   2.9970  52.5099 14.69463807887390"}}, "geometry": {"type": "Point", "coordinates": [-116.59979010858608, 54.17972773602609]}}, {"type": "Feature", "properties": {"norad_id": 34344, "name": "COSMOS 2251 DEB", "group": "cosmos-2251-debris", "lat": -45.478189232386725, "lon": 90.8167672330294, "alt_km": 738.2254616115488, "timestamp": "2025-12-14T03:55:53.182010+00:00", "meta": {"OBJECT_NAME": "COSMOS 2251 DEB", "OBJECT_ID": "1993-036PS", "EPOCH": "2025-12-13T07:57:00.078624", "MEAN_MOTION": 14.16416745, "ECCENTRICITY": 0.01559613, "INCLINATION": 73.9776, "RA_OF_ASC_NODE": 109.2914, "ARG_OF_PERICENTER": 293.333, "MEAN_ANOMALY": 94.594, "EPHEMERIS_TYPE": 0, "CLASSIFICATION_TYPE": "U", "NORAD_CAT_ID": 34344, "ELEMENT_SET_NO": 999, "REV_AT_EPOCH": 86105, "BSTAR": 0.0027611495, "MEAN_MOTION_DOT": 6.158e-05, "MEAN_MOTION_DDOT": 0}, "tle": {"line1": "1 34344U 93036PS  25347.33125091  .00006158  00000+0  27611-2 0  9992", "line2": "2 34344  73.9776 109.2914 0155961 293.3330  94.5940 14.16416745861055"}}, "geometry": {"type": "Point", "coordinates": [90.8167672330294, -45.478189232386725]}}, {"type": "Feature", "properties": {"norad_id": 34346, "name": "COSMOS 2251 DEB", "group": "cosmos-2251-debris", "lat": -22.064923364207257, "lon": -56.905243099238774, "alt_km": 1030.6051732767182, "timestamp": "2025-12-14T03:55:53.182020+00:00", "meta": {"OBJECT_NAME": "COSMOS 2251 DEB", "OBJECT_ID": "1993-036PU", "EPOCH": "2025-12-13T08:09:49.367808", "MEAN_MOTION": 13.9969546, "ECCENTRICITY": 0.020621, "INCLINATION": 73.995, "RA_OF_ASC_NODE": 311.2044, "ARG_OF_PERICENTER": 129.9917, "MEAN_ANOMALY": 19.5449, "EPHEMERIS_TYPE": 0, "CLASSIFICATION_TYPE": "U", "NORAD_CAT_ID": 34346, "ELEMENT_SET_NO": 999, "REV_AT_EPOCH": 85418, "BSTAR": 0.0014262314, "MEAN_MOTION_DOT": 2.484e-05, "MEAN_MOTION_DDOT": 0}, "tle": {"line1": "1 34346U 93036PU  25347.34015472  .00002484  00000+0  14262-2 0  9992", "line2": "2 34346  73.9950 311.2044 0206210 129.9917  19.5449 13.99695460854189"}}, "geometry": {"type": "Point", "coordinates": [-56.905243099238774, -22.064923364207257]}}, {"type": "Feature", "properties": {"norad_id": 34383, "name": "COSMOS 2251 DEB", "group": "cosmos-2251-debris", "lat": 15.519493613531425, "lon": -60.67126556167245, "alt_km": 537.5748726837137, "timestamp": "2025-12-14T03:55:53.182030+00:00", "meta": {"OBJECT_NAME": "COSMOS 2251 DEB", "OBJECT_ID": "1993-036PY", "EPOCH": "2025-12-13T07:43:48.517248", "MEAN_MOTION": 15.09096636, "ECCENTRICITY": 0.00023345, "INCLINATION": 74.0219, "RA_OF_ASC_NODE": 296.5009, "ARG_OF_PERICENTER": 45.1672, "MEAN_ANOMALY": 80.0273, "EPHEMERIS_TYPE": 0, "CLASSIFICATION_TYPE": "U", "NORAD_CAT_ID": 34383, "ELEMENT_SET_NO": 999, "REV_AT_EPOCH": 89122, "BSTAR": 0.0048451422, "MEAN_MOTION_DOT": 0.00077636, "MEAN_MOTION_DDOT": 0}, "tle": {"line1": "1 34383U 93036PY  25347.32208932  .00077636  00000+0  48451-2 0  9994", "line2": "2 34383  74.0219 296.5009 0002334  45.1672  80.0273 15.09096636891221"}}, "geometry": {"type": "Point", "coordinates": [-60.67126556167245, 15.519493613531425]}}, {"type": "Feature", "properties": {"norad_id": 34387, "name": "COSMOS 2251 DEB", "group": "cosmos-2251-debris", "lat": -20.753010500207466, "lon": -156.97555364319527, "alt_km": 727.4736487773835, "timestamp": "2025-12-14T03:55:53.182119+00:00", "meta": {"OBJECT_NAME": "COSMOS 2251 DEB", "OBJECT_ID": "1993-036QC", "EPOCH": "2025-12-12T22:10:00.083712", "MEAN_MOTION": 14.43821195, "ECCENTRICITY": 0.00387815, "INCLINATION": 74.0401, "RA_OF_ASC_NODE": 211.5541, "ARG_OF_PERICENTER": 308.4592, "MEAN_ANOMALY": 66.1437, "EPHEMERIS_TYPE": 0, "CLASSIFICATION_TYPE": "U", "NORAD_CAT_ID": 34387, "ELEMENT_SET_NO": 999, "REV_AT_EPOCH": 88184, "BSTAR": 0.00043482305, "MEAN_MOTION_DOT": 1.467e-05, "MEAN_MOTION_DDOT": 0}, "tle": {"line1": "1 34387U 93036QC  25346.92361208  .00001467  00000+0  43482-3 0  9998", "line2": "2 34387  74.0401 211.5541 0038781 308.4592  66.1437 14.43821195881844"}}, "geometry": {"type": "Point", "coordinates": [-156.97555364319527, -20.753010500207466]}}, {"type": "Feature", "properties": {"norad_id": 34388, "name": "COSMOS 2251 DEB", "group": "cosmos-2251-debris", "lat": -10.333174191066329, "lon": -142.55647476309764, "alt_km": 729.9774023984874, "timestamp": "2025-12-14T03:55:53.182132+00:00", "meta": {"OBJECT_NAME": "COSMOS 2251 DEB", "OBJECT_ID": "1993-036QD", "EPOCH": "2025-12-13T01:48:08.373888", "MEAN_MOTION": 14.49369086, "ECCENTRICITY": 0.00140391, "INCLINATION": 74.039, "RA_OF_ASC_NODE": 222.4758, "ARG_OF_PERICENTER": 270.6697, "MEAN_ANOMALY": 160.2215, "EPHEMERIS_TYPE": 0, "CLASSIFICATION_TYPE": "U", "NORAD_CAT_ID": 34388, "ELEMENT_SET_NO": 999, "REV_AT_EPOCH": 88160, "BSTAR": 0.0010535844, "MEAN_MOTION_DOT": 4.006e-05, "MEAN_MOTION_DDOT": 0}, "tle": {"line1": "1 34388U 93036QD  25347.07509692  .00004006  00000+0  10536-2 0  9992", "line2": "2 34388  74.0390 222.4758 0014039 270.6697 160.2215 14.49369086881605"}}, "geometry": {"type": "Point", "coordinates": [-142.55647476309764, -10.333174191066329]}}, {"type": "Feature", "properties": {"norad_id": 34389, "name": "COSMOS 2251 DEB", "group": "cosmos-2251-debris", "lat": -27.517458755546766, "lon": -121.41135269002633, "alt_km": 740.5092579205275, "timestamp": "2025-12-14T03:55:53.182143+00:00", "meta": {"OBJECT_NAME": "COSMOS 2251 DEB", "OBJECT_ID": "1993-036QE", "EPOCH": "2025-12-13T03:46:35.393376", "MEAN_MOTION": 14.41535601, "ECCENTRICITY": 0.00289398, "INCLINATION": 74.0193, "RA_OF_ASC_NODE": 249.0398, "ARG_OF_PERICENTER": 0.9802, "MEAN_ANOMALY": 149.6236, "EPHEMERIS_TYPE": 0, "CLASSIFICATION_TYPE": "U", "NORAD_CAT_ID": 34389, "ELEMENT_SET_NO": 999, "REV_AT_EPOCH": 88018, "BSTAR": 0.00060623961, "MEAN_MOTION_DOT": 1.954e-05, "MEAN_MOTION_DDOT": 0}, "tle": {"line1": "1 34389U 93036QE  25347.15735409  .00001954  00000+0  60624-3 0  9992", "line2": "2 34389  74.0193 249.0398 0028939   0.9802 149.6236 14.41535601880184"}}, "geometry": {"type": "Point", "coordinates": [-121.41135269002633, -27.517458755546766]}}, {"type": "Feature", "properties": {"norad_id": 34396, "name": "COSMOS 2251 DEB", "group": "cosmos-2251-debris", "lat": 59.97600568142386, "lon": 150.95851716908206, "alt_km": 641.1487746825433, "timestamp": "2025-12-14T03:55:53.182154+00:00", "meta": {"OBJECT_NAME": "COSMOS 2251 DEB", "OBJECT_ID": "1993-036QM", "EPOCH": "2025-12-12T19:45:45.535680", "MEAN_MOTION": 14.74426427, "ECCENTRICITY": 0.00059552, "INCLINATION": 74.0292, "RA_OF_ASC_NODE": 123.8692, "ARG_OF_PERICENTER": 164.5248, "MEAN_ANOMALY": 348.071, "EPHEMERIS_TYPE": 0, "CLASSIFICATION_TYPE": "U", "NORAD_CAT_ID": 34396, "ELEMENT_SET_NO": 999, "REV_AT_EPOCH": 88347, "BSTAR": 0.0033309359, "MEAN_MOTION_DOT": 0.00022162, "MEAN_MOTION_DDOT": 0}, "tle": {"line1": "1 34396U 93036QM  25346.82344370  .00022162  00000+0  33309-2 0  9999", "line2": "2 34396  74.0292 123.8692 0005955 164.5248 348.0710 14.74426427883470"}}, "geometry": {"type": "Point", "coordinates": [150.95851716908206, 59.97600568142386]}}]}